EUTELSAT 21B            
1 38992U 12062B   26008.24428329  .00000135  00000+0  00000+0 0  9999
2 38992   0.0692  20.0826 0003073 272.2872 284.9454  1.00271727 48220
EUTELSAT 70B            
1 39020U 12069A   26008.46797140 -.00000037  00000+0  00000+0 0  9995
2 39020   0.0633 345.1441 0003846 279.9252  81.9151  1.00270112 47906
EUTELSAT 117 WEST A     
1 39122U 13012A   26008.45012242 -.00000007  00000+0  00000+0 0  9996
2 39122   0.0433 281.0207 0003020  10.6306 221.5796  1.00271130 46838
EUTELSAT 7B             
1 39163U 13022A   26008.38407752  .00000053  00000+0  00000+0 0  9998
2 39163   0.0651   5.6003 0005443 324.0111 283.5680  1.00272185 46343
EXPRESS-AT1             
1 39612U 14010A   26008.17980288  .00000084  00000+0  00000+0 0  9996
2 39612   0.0283 264.4676 0000434  10.1139 313.8474  1.00269939 43216
EXPRESS-AT2             
1 39613U 14010B   26008.19644299  .00000000  00000+0  00000+0 0  9996
2 39613   0.0181  30.5489 0001222 268.0165  19.7630  1.00269179 42892
EUTELSAT 3B             
1 39773U 14030A   26008.38329751  .00000025  00000+0  00000+0 0  9996
2 39773   0.0621 346.2042 0003743 257.8278   4.9913  1.00271580 42463
EUTELSAT 115 WEST B     
1 40425U 15010B   26007.64662865 -.00000022  00000+0  00000+0 0  9993
2 40425   0.0099 195.6586 0000257 256.4584 132.9755  1.00274395 39783
